     2.100          NAVIGATION                              RINEX VERSION / TYPE
fic2rin                                 03/08/2018 00:04:41 PGM / RUN BY / DATE
                                                            END OF HEADER
12 18  3  7 13 59 44.0  .346651766449D-03 -.204636307899D-11  .000000000000D+00
     .160000000000D+02 -.276250000000D+02  .407659837811D-08 -.280506014350D+00
    -.142119824886D-05  .704879686236D-02  .520609319210D-05  .515363189697D+04
     .309584000000D+06  .186264514923D-07  .300040539840D+01  .856816768646D-07
     .987501728245D+00  .292468750000D+03  .931364725136D+00 -.809105131048D-08
    -.244653047924D-09  .100000000000D+01  .199100000000D+04  .000000000000D+00
     .240000000000D+01  .000000000000D+00 -.125728547573D-07  .160000000000D+02
     .302406000000D+06  .400000000000D+01
21 18  3  7 13 59 44.0 -.422412995249D-03  .454747350886D-11  .000000000000D+00
     .240000000000D+02  .178125000000D+02  .514914305390D-08 -.767446896067D+00
     .111013650894D-05  .244888879824D-01  .807084143162D-05  .515374836540D+04
     .309584000000D+06 -.316649675369D-06 -.129746949222D+01  .268220901489D-06
     .942651372185D+00  .223656250000D+03 -.158482360750D+01 -.878750889216D-08
     .561094800422D-09  .100000000000D+01  .199100000000D+04  .000000000000D+00
     .240000000000D+01  .000000000000D+00 -.102445483208D-07  .240000000000D+02
     .302406000000D+06  .400000000000D+01
27 18  3  7 13 59 44.0  .369015149772D-03  .795807864051D-12  .000000000000D+00
     .520000000000D+02 -.495000000000D+02  .388480467485D-08 -.305084621837D+01
    -.246614217758D-05  .562716135755D-02  .997446477413D-05  .515368387413D+04
     .309584000000D+06  .931322574615D-08 -.230237519990D+01 -.335276126862D-07
     .976990993928D+00  .196468750000D+03  .363327279594D+00 -.775246577846D-08
     .828605943335D-10  .100000000000D+01  .199100000000D+04  .000000000000D+00
     .240000000000D+01  .000000000000D+00  .186264514923D-08  .520000000000D+02
     .302406000000D+06  .400000000000D+01
30 18  3  7 13 59 44.0  .972058624029D-04 -.363797880709D-11  .000000000000D+00
     .120000000000D+02  .590625000000D+02  .502913805522D-08  .484416198176D+00
     .296160578728D-05  .307557452470D-02  .602379441261D-05  .515376569557D+04
     .309584000000D+06 -.130385160446D-07  .194447538295D+01 -.130385160446D-07
     .944680113330D+00  .250093750000D+03 -.313399128444D+01 -.845392356842D-08
    -.314298806093D-10  .100000000000D+01  .199100000000D+04  .000000000000D+00
     .240000000000D+01  .000000000000D+00  .372529029846D-08  .120000000000D+02
     .302406000000D+06  .400000000000D+01
31 18  3  7 13 59 44.0  .137083232403D-03 -.261479726760D-11  .000000000000D+00
     .900000000000D+01  .739375000000D+02  .462769276198D-08  .104949172469D+00
     .372529029846D-05  .881851743907D-02  .614672899246D-05  .515362023735D+04
     .309584000000D+06  .137835741043D-06  .192185824959D+01 -.447034835815D-07
     .963715244963D+00  .261750000000D+03 -.144400652764D+00 -.835177645644D-08
     .507163982558D-10  .100000000000D+01  .199100000000D+04  .000000000000D+00
     .240000000000D+01  .000000000000D+00 -.135041773319D-07  .900000000000D+01
     .302406000000D+06  .400000000000D+01
 1 18  3  7 14  0  0.0 -.327280722558D-04 -.227373675443D-11  .000000000000D+00
     .580000000000D+02  .112500000000D+01  .444518515980D-08  .100087949819D+01
    -.111758708954D-07  .740886246786D-02  .749528408051D-05  .515367296982D+04
     .309600000000D+06  .204890966415D-07 -.124547757679D+01  .819563865662D-07
     .970108211598D+00  .239843750000D+03  .610427899001D+00 -.813605318499D-08
     .315370279295D-09  .100000000000D+01  .199100000000D+04  .000000000000D+00
     .240000000000D+01  .000000000000D+00  .558793544769D-08  .580000000000D+02
     .302406000000D+06  .400000000000D+01
 2 18  3  7 14  0  0.0  .181041192263D-03 -.108002495836D-10  .000000000000D+00
     .100000000000D+02 -.190625000000D+01  .487841749138D-08  .136968465844D+01
    -.195577740669D-06  .178563178051D-01  .764057040215D-05  .515369389153D+04
     .309600000000D+06 -.411644577980D-06 -.130491335630D+01 -.242143869400D-06
     .949136420736D+00  .227375000000D+03 -.188418568207D+01 -.844570894053D-08
     .356443418728D-09  .100000000000D+01  .199100000000D+04  .000000000000D+00
     .240000000000D+01  .000000000000D+00 -.204890966415D-07  .100000000000D+02
     .302406000000D+06  .400000000000D+01
 3 18  3  7 14  0  0.0  .235480256379D-04  .807176547823D-11  .000000000000D+00
     .170000000000D+02 -.297187500000D+02  .489127516982D-08  .139163397263D+00
    -.155158340931D-05  .121474615298D-02  .706687569618D-05  .515354006195D+04
     .309600000000D+06  .316649675369D-07 -.202572961131D+00 -.186264514923D-07
     .961083294417D+00  .247625000000D+03  .445826370778D+00 -.820855620503D-08
    -.828605943335D-10  .100000000000D+01  .199100000000D+04  .000000000000D+00
     .240000000000D+01  .000000000000D+00  .232830643654D-08  .170000000000D+02
     .302406000000D+06  .400000000000D+01
 4 18  3  7 14  0  0.0  .431258231401D-04  .284217094304D-11  .000000000000D+00
     .530000000000D+02 -.327500000000D+02  .537629537285D-08 -.188036188924D+01
    -.164844095707D-05  .967520719860D-02  .487826764584D-05  .515368082047D+04
     .309600000000D+06  .968575477600D-07  .296622764708D+01 -.100582838058D-06
     .980001966067D+00  .295000000000D+03  .899231287724D+00 -.796354599937D-08
    -.205008539429D-09  .100000000000D+01  .199100000000D+04  .000000000000D+00
     .240000000000D+01  .630000000000D+02 -.195577740669D-07  .530000000000D+02
     .302406000000D+06  .400000000000D+01
 5 18  3  7 14  0  0.0 -.126613304019D-04  .909494701773D-12  .000000000000D+00
     .930000000000D+02 -.290312500000D+02  .514128558375D-08 -.230626631622D+01
    -.174343585968D-05  .528512627352D-02  .665523111820D-05  .515365355301D+04
     .309600000000D+06  .108033418655D-06 -.223270700624D+00 -.102445483208D-06
     .947977324409D+00  .243500000000D+03  .619804428542D+00 -.833427572747D-08
    -.400016662300D-10  .100000000000D+01  .199100000000D+04  .000000000000D+00
     .240000000000D+01  .000000000000D+00 -.107102096081D-07  .930000000000D+02
     .302406000000D+06  .400000000000D+01
 6 18  3  7 14  0  0.0  .413254834712D-03 -.909494701773D-12  .000000000000D+00
     .101000000000D+03 -.156250000000D+00  .432660879205D-08  .123456429276D+01
     .126659870148D-06  .117173371837D-02  .726059079170D-05  .515358419609D+04
     .309600000000D+06 -.558793544769D-08 -.125381500000D+01 -.856816768646D-07
     .969836955865D+00  .242468750000D+03 -.120676055744D+01 -.801069082028D-08
     .391802034413D-09  .100000000000D+01  .199100000000D+04  .000000000000D+00
     .240000000000D+01  .000000000000D+00  .465661287308D-08  .101000000000D+03
     .302406000000D+06  .400000000000D+01
 7 18  3  7 14  0  0.0  .226636417210D-03 -.568434188608D-11  .000000000000D+00
     .890000000000D+02  .641875000000D+02  .477519890620D-08  .309408876602D+00
     .346824526787D-05  .112193147652D-01  .623241066933D-05  .515368595505D+04
     .309600000000D+06  .745058059692D-08  .190969651274D+01  .111758708954D-06
     .959037119677D+00  .254968750000D+03 -.254302861645D+01 -.844535178280D-08
    -.339299847486D-10  .100000000000D+01  .199100000000D+04  .000000000000D+00
     .240000000000D+01  .000000000000D+00 -.111758708954D-07  .890000000000D+02
     .302406000000D+06  .400000000000D+01
 8 18  3  7 14  0  0.0 -.935578718781D-04 -.125055521494D-11  .000000000000D+00
     .930000000000D+02 -.463750000000D+02  .410231373498D-08 -.275948813873D+01
    -.225566327572D-05  .339381908998D-02  .923313200474D-05  .515377945709D+04
     .309600000000D+06  .279396772385D-07 -.231018777639D+01  .353902578354D-07
     .968818840953D+00  .206093750000D+03 -.518527060493D+00 -.791318675885D-08
     .460733477113D-10  .100000000000D+01  .199100000000D+04  .000000000000D+00
     .340000000000D+01  .000000000000D+00  .558793544769D-08  .930000000000D+02
     .302406000000D+06  .400000000000D+01
 9 18  3  7 14  0  0.0  .505319796503D-03  .216004991671D-11  .000000000000D+00
     .190000000000D+02  .117500000000D+02  .475091218028D-08 -.289217665911D+01
     .733882188797D-06  .112723559141D-02  .104848295450D-04  .515367289734D+04
     .309600000000D+06  .558793544769D-08  .831379742806D+00  .000000000000D+00
     .953006901134D+00  .175562500000D+03  .177711698561D+01 -.807176479283D-08
    -.155006456641D-09  .100000000000D+01  .199100000000D+04  .000000000000D+00
     .240000000000D+01  .000000000000D+00  .139698386192D-08  .190000000000D+02
     .302406000000D+06  .400000000000D+01
10 18  3  7 14  0  0.0  .167690217495D-03  .397903932026D-11  .000000000000D+00
     .180000000000D+02 -.318437500000D+02  .480770026001D-08 -.107371883889D+01
    -.165216624737D-05  .334096432198D-02  .675395131111D-05  .515366174316D+04
     .309600000000D+06  .353902578354D-07 -.206073111132D+00 -.558793544769D-08
     .961191755163D+00  .247281250000D+03 -.280201987643D+01 -.816033991091D-08
    -.710743891050D-10  .100000000000D+01  .199100000000D+04  .000000000000D+00
     .240000000000D+01  .000000000000D+00  .186264514923D-08  .180000000000D+02
     .302406000000D+06  .400000000000D+01
11 18  3  7 14  0  0.0 -.737149268389D-03 -.341060513165D-12  .000000000000D+00
     .670000000000D+02 -.753125000000D+01  .586345852230D-08  .276098445523D+00
    -.450760126114D-06  .167152688373D-01  .852718949318D-05  .515361876869D+04
     .309600000000D+06 -.173225998878D-06 -.166722482069D+01 -.143423676491D-06
     .904098724849D+00  .187843750000D+03  .174260286554D+01 -.903859077930D-08
     .325370695853D-09  .100000000000D+01  .199100000000D+04  .000000000000D+00
     .240000000000D+01  .000000000000D+00 -.121071934700D-07  .670000000000D+02
     .302406000000D+06  .400000000000D+01
